[{"OBJECT_NAME":"ONEWEB-0140","OBJECT_ID":"2020-100AE","EPOCH":"2026-02-01T22:53:12.178752","MEAN_MOTION":13.12441946,"ECCENTRICITY":0.00016598,"INCLINATION":87.895,"RA_OF_ASC_NODE":17.4813,"ARG_OF_PERICENTER":82.882,"MEAN_ANOMALY":277.2497,"EPHEMERIS_TYPE":0,"CLASSIFICATION_TYPE":"U","NORAD_CAT_ID":47286,"ELEMENT_SET_NO":999,"REV_AT_EPOCH":24695,"BSTAR":0.00057705688,"MEAN_MOTION_DOT":2.2e-6,"MEAN_MOTION_DDOT":0},{"OBJECT_NAME":"ONEWEB-0141","OBJECT_ID":"2020-100AF","EPOCH":"2026-02-01T22:09:05.015808","MEAN_MOTION":13.1244486,"ECCENTRICITY":0.00021422,"INCLINATION":87.8945,"RA_OF_ASC_NODE":17.4944,"ARG_OF_PERICENTER":85.1741,"MEAN_ANOMALY":274.9632,"EPHEMERIS_TYPE":0,"CLASSIFICATION_TYPE":"U","NORAD_CAT_ID":47287,"ELEMENT_SET_NO":999,"REV_AT_EPOCH":24693,"BSTAR":0.0002310254,"MEAN_MOTION_DOT":9.6e-7,"MEAN_MOTION_DDOT":0},{"OBJECT_NAME":"ONEWEB-0142","OBJECT_ID":"2020-100AG","EPOCH":"2026-02-01T21:52:24.346560","MEAN_MOTION":13.12442166,"ECCENTRICITY":0.00021663,"INCLINATION":87.8943,"RA_OF_ASC_NODE":17.5216,"ARG_OF_PERICENTER":93.6675,"MEAN_ANOMALY":266.4702,"EPHEMERIS_TYPE":0,"CLASSIFICATION_TYPE":"U","NORAD_CAT_ID":47288,"ELEMENT_SET_NO":999,"REV_AT_EPOCH":24692,"BSTAR":-0.00080564175,"MEAN_MOTION_DOT":-2.77e-6,"MEAN_MOTION_DDOT":0},{"OBJECT_NAME":"ONEWEB-0143","OBJECT_ID":"2020-100AH","EPOCH":"2026-02-01T22:06:50.720832","MEAN_MOTION":13.12444873,"ECCENTRICITY":0.00018411,"INCLINATION":87.8947,"RA_OF_ASC_NODE":17.5149,"ARG_OF_PERICENTER":85.5564,"MEAN_ANOMALY":274.5775,"EPHEMERIS_TYPE":0,"CLASSIFICATION_TYPE":"U","NORAD_CAT_ID":47289,"ELEMENT_SET_NO":999,"REV_AT_EPOCH":24690,"BSTAR":-5.1776388e-5,"MEAN_MOTION_DOT":-6.0e-8,"MEAN_MOTION_DDOT":0},{"OBJECT_NAME":"ONEWEB-0144","OBJECT_ID":"2020-100AJ","EPOCH":"2026-02-01T23:15:08.875008","MEAN_MOTION":13.12441662,"ECCENTRICITY":0.00018368,"INCLINATION":87.8951,"RA_OF_ASC_NODE":17.4748,"ARG_OF_PERICENTER":97.3283,"MEAN_ANOMALY":262.8054,"EPHEMERIS_TYPE":0,"CLASSIFICATION_TYPE":"U","NORAD_CAT_ID":47290,"ELEMENT_SET_NO":999,"REV_AT_EPOCH":24683,"BSTAR":-0.00066622172,"MEAN_MOTION_DOT":-2.27e-6,"MEAN_MOTION_DDOT":0},{"OBJECT_NAME":"ONEWEB-0145","OBJECT_ID":"2020-100AK","EPOCH":"2026-02-01T22:33:41.416416","MEAN_MOTION":13.12443178,"ECCENTRICITY":0.00018351,"INCLINATION":87.8949,"RA_OF_ASC_NODE":17.5197,"ARG_OF_PERICENTER":88.2597,"MEAN_ANOMALY":271.8742,"EPHEMERIS_TYPE":0,"CLASSIFICATION_TYPE":"U","NORAD_CAT_ID":47291,"ELEMENT_SET_NO":999,"REV_AT_EPOCH":24702,"BSTAR":0.0011429051,"MEAN_MOTION_DOT":4.24e-6,"MEAN_MOTION_DDOT":0},{"OBJECT_NAME":"ONEWEB-0146","OBJECT_ID":"2020-100AL","EPOCH":"2026-02-01T22:28:48.821952","MEAN_MOTION":13.12444561,"ECCENTRICITY":0.00017214,"INCLINATION":87.8948,"RA_OF_ASC_NODE":17.5054,"ARG_OF_PERICENTER":74.6141,"MEAN_ANOMALY":285.5178,"EPHEMERIS_TYPE":0,"CLASSIFICATION_TYPE":"U","NORAD_CAT_ID":47292,"ELEMENT_SET_NO":999,"REV_AT_EPOCH":24693,"BSTAR":0.0011600966,"MEAN_MOTION_DOT":4.3e-6,"MEAN_MOTION_DDOT":0},{"OBJECT_NAME":"ONEWEB-0147","OBJECT_ID":"2020-100AM","EPOCH":"2026-02-01T23:29:47.064480","MEAN_MOTION":13.12442492,"ECCENTRICITY":0.00015558,"INCLINATION":87.8947,"RA_OF_ASC_NODE":17.4763,"ARG_OF_PERICENTER":90.069,"MEAN_ANOMALY":270.0616,"EPHEMERIS_TYPE":0,"CLASSIFICATION_TYPE":"U","NORAD_CAT_ID":47293,"ELEMENT_SET_NO":999,"REV_AT_EPOCH":24683,"BSTAR":-0.001242405,"MEAN_MOTION_DOT":-4.34e-6,"MEAN_MOTION_DDOT":0},{"OBJECT_NAME":"ONEWEB-0115","OBJECT_ID":"2021-025A","EPOCH":"2026-02-01T21:13:23.265120","MEAN_MOTION":13.13468825,"ECCENTRICITY":0.00017883,"INCLINATION":87.9034,"RA_OF_ASC_NODE":347.1087,"ARG_OF_PERICENTER":79.3296,"MEAN_ANOMALY":280.8035,"EPHEMERIS_TYPE":0,"CLASSIFICATION_TYPE":"U","NORAD_CAT_ID":48042,"ELEMENT_SET_NO":999,"REV_AT_EPOCH":23583,"BSTAR":-0.00059297993,"MEAN_MOTION_DOT":-2.04e-6,"MEAN_MOTION_DDOT":0},{"OBJECT_NAME":"ONEWEB-0152","OBJECT_ID":"2021-025B","EPOCH":"2026-02-01T21:32:54.558816","MEAN_MOTION":13.13470127,"ECCENTRICITY":0.00017582,"INCLINATION":87.9027,"RA_OF_ASC_NODE":347.1093,"ARG_OF_PERICENTER":77.3438,"MEAN_ANOMALY":282.7888,"EPHEMERIS_TYPE":0,"CLASSIFICATION_TYPE":"U","NORAD_CAT_ID":48043,"ELEMENT_SET_NO":999,"REV_AT_EPOCH":23579,"BSTAR":-0.00075431787,"MEAN_MOTION_DOT":-2.63e-6,"MEAN_MOTION_DDOT":0},{"OBJECT_NAME":"ONEWEB-0153","OBJECT_ID":"2021-025C","EPOCH":"2026-02-01T22:50:54.643776","MEAN_MOTION":13.13468802,"ECCENTRICITY":0.00018473,"INCLINATION":87.9027,"RA_OF_ASC_NODE":347.1051,"ARG_OF_PERICENTER":83.0521,"MEAN_ANOMALY":277.0818,"EPHEMERIS_TYPE":0,"CLASSIFICATION_TYPE":"U","NORAD_CAT_ID":48044,"ELEMENT_SET_NO":999,"REV_AT_EPOCH":23579,"BSTAR":-2.96494e-5,"MEAN_MOTION_DOT":2.0e-8,"MEAN_MOTION_DDOT":0},{"OBJECT_NAME":"ONEWEB-0154","OBJECT_ID":"2021-025D","EPOCH":"2026-02-01T22:46:01.933536","MEAN_MOTION":13.13470251,"ECCENTRICITY":0.00017319,"INCLINATION":87.9029,"RA_OF_ASC_NODE":347.1025,"ARG_OF_PERICENTER":79.4948,"MEAN_ANOMALY":280.6376,"EPHEMERIS_TYPE":0,"CLASSIFICATION_TYPE":"U","NORAD_CAT_ID":48045,"ELEMENT_SET_NO":999,"REV_AT_EPOCH":23575,"BSTAR":0.00023262608,"MEAN_MOTION_DOT":9.8e-7,"MEAN_MOTION_DDOT":0},{"OBJECT_NAME":"ONEWEB-0116","OBJECT_ID":"2021-025E","EPOCH":"2026-02-01T21:52:24.451968","MEAN_MOTION":13.13469858,"ECCENTRICITY":0.00017739,"INCLINATION":87.9029,"RA_OF_ASC_NODE":347.0959,"ARG_OF_PERICENTER":76.654,"MEAN_ANOMALY":283.4787,"EPHEMERIS_TYPE":0,"CLASSIFICATION_TYPE":"U","NORAD_CAT_ID":48046,"ELEMENT_SET_NO":999,"REV_AT_EPOCH":23589,"BSTAR":-0.00010588401,"MEAN_MOTION_DOT":-2.6e-7,"MEAN_MOTION_DDOT":0},{"OBJECT_NAME":"ONEWEB-0150","OBJECT_ID":"2021-025F","EPOCH":"2026-02-01T21:18:16.415136","MEAN_MOTION":13.13469183,"ECCENTRICITY":0.00020377,"INCLINATION":87.9033,"RA_OF_ASC_NODE":347.0972,"ARG_OF_PERICENTER":80.5191,"MEAN_ANOMALY":279.6168,"EPHEMERIS_TYPE":0,"CLASSIFICATION_TYPE":"U","NORAD_CAT_ID":48047,"ELEMENT_SET_NO":999,"REV_AT_EPOCH":23578,"BSTAR":-0.00064398012,"MEAN_MOTION_DOT":-2.22e-6,"MEAN_MOTION_DDOT":0},{"OBJECT_NAME":"ONEWEB-0107","OBJECT_ID":"2021-025G","EPOCH":"2026-02-01T21:20:43.210464","MEAN_MOTION":13.13470892,"ECCENTRICITY":0.00019078,"INCLINATION":87.9032,"RA_OF_ASC_NODE":347.0931,"ARG_OF_PERICENTER":88.2854,"MEAN_ANOMALY":271.8494,"EPHEMERIS_TYPE":0,"CLASSIFICATION_TYPE":"U","NORAD_CAT_ID":48048,"ELEMENT_SET_NO":999,"REV_AT_EPOCH":23576,"BSTAR":-0.00078971487,"MEAN_MOTION_DOT":-2.76e-6,"MEAN_MOTION_DDOT":0},{"OBJECT_NAME":"ONEWEB-0101","OBJECT_ID":"2021-025H","EPOCH":"2026-02-01T20:27:05.664096","MEAN_MOTION":13.13469912,"ECCENTRICITY":0.00017441,"INCLINATION":87.9021,"RA_OF_ASC_NODE":347.1299,"ARG_OF_PERICENTER":85.2416,"MEAN_ANOMALY":274.8912,"EPHEMERIS_TYPE":0,"CLASSIFICATION_TYPE":"U","NORAD_CAT_ID":48049,"ELEMENT_SET_NO":999,"REV_AT_EPOCH":23573,"BSTAR":0.00072826146,"MEAN_MOTION_DOT":2.79e-6,"MEAN_MOTION_DDOT":0}]
