ONEWEB-0140             
1 47286U 20100AE  26032.95361318  .00000220  00000+0  57706-3 0  9990
2 47286  87.8950  17.4813 0001659  82.8820 277.2497 13.12441946246958
ONEWEB-0141             
1 47287U 20100AF  26032.92297472  .00000096  00000+0  23103-3 0  9992
2 47287  87.8945  17.4944 0002142  85.1741 274.9632 13.12444860246935
ONEWEB-0142             
1 47288U 20100AG  26032.91139290 -.00000277  00000+0 -80564-3 0  9992
2 47288  87.8943  17.5216 0002166  93.6675 266.4702 13.12442166246923
ONEWEB-0143             
1 47289U 20100AH  26032.92142038 -.00000006  00000+0 -51776-4 0  9992
2 47289  87.8947  17.5149 0001841  85.5564 274.5775 13.12444873246904
ONEWEB-0144             
1 47290U 20100AJ  26032.96885272 -.00000227  00000+0 -66622-3 0  9992
2 47290  87.8951  17.4748 0001836  97.3283 262.8054 13.12441662246833
ONEWEB-0145             
1 47291U 20100AK  26032.94006269  .00000424  00000+0  11429-2 0  9993
2 47291  87.8949  17.5197 0001835  88.2597 271.8742 13.12443178247026
ONEWEB-0146             
1 47292U 20100AL  26032.93667618  .00000430  00000+0  11601-2 0  9993
2 47292  87.8948  17.5054 0001721  74.6141 285.5178 13.12444561246937
ONEWEB-0147             
1 47293U 20100AM  26032.97901695 -.00000434  00000+0 -12424-2 0  9994
2 47293  87.8947  17.4763 0001555  90.0690 270.0616 13.12442492246835
ONEWEB-0115             
1 48042U 21025A   26032.88429705 -.00000204  00000+0 -59298-3 0  9997
2 48042  87.9034 347.1087 0001788  79.3296 280.8035 13.13468825235839
ONEWEB-0152             
1 48043U 21025B   26032.89785369 -.00000263  00000+0 -75432-3 0  9993
2 48043  87.9027 347.1093 0001758  77.3438 282.7888 13.13470127235792
ONEWEB-0153             
1 48044U 21025C   26032.95202134  .00000002  00000+0 -29649-4 0  9995
2 48044  87.9027 347.1051 0001847  83.0521 277.0818 13.13468802235790
ONEWEB-0154             
1 48045U 21025D   26032.94863349  .00000098  00000+0  23263-3 0  9995
2 48045  87.9029 347.1025 0001731  79.4948 280.6376 13.13470251235754
ONEWEB-0116             
1 48046U 21025E   26032.91139412 -.00000026  00000+0 -10588-3 0  9999
2 48046  87.9029 347.0959 0001773  76.6540 283.4787 13.13469858235896
ONEWEB-0150             
1 48047U 21025F   26032.88768999 -.00000222  00000+0 -64398-3 0  9990
2 48047  87.9033 347.0972 0002037  80.5191 279.6168 13.13469183235786
ONEWEB-0107             
1 48048U 21025G   26032.88938901 -.00000276  00000+0 -78971-3 0  9994
2 48048  87.9032 347.0931 0001907  88.2854 271.8494 13.13470892235760
ONEWEB-0101             
1 48049U 21025H   26032.85214889  .00000279  00000+0  72826-3 0  9998
2 48049  87.9021 347.1299 0001744  85.2416 274.8912 13.13469912235733
